[{"OBJECT_NAME":"INTELSAT 4-F4","OBJECT_ID":"1972-003A","EPOCH":"2026-04-05T02:03:54.910080","MEAN_MOTION":0.99824718,"ECCENTRICITY":0.00022925,"INCLINATION":6.9173,"RA_OF_ASC_NODE":294.9915,"ARG_OF_PERICENTER":96.2949,"MEAN_ANOMALY":106.6082,"EPHEMERIS_TYPE":0,"CLASSIFICATION_TYPE":"U","NORAD_CAT_ID":5775,"ELEMENT_SET_NO":999,"REV_AT_EPOCH":13666,"BSTAR":0,"MEAN_MOTION_DOT":-1.48e-6,"MEAN_MOTION_DDOT":0},{"OBJECT_NAME":"OPS 1570 (DSP 3)","OBJECT_ID":"1972-010A","EPOCH":"2026-04-05T02:12:24.096384","MEAN_MOTION":0.99777421,"ECCENTRICITY":0.0009455,"INCLINATION":0.2315,"RA_OF_ASC_NODE":109.0723,"ARG_OF_PERICENTER":180.8311,"MEAN_ANOMALY":239.5969,"EPHEMERIS_TYPE":0,"CLASSIFICATION_TYPE":"U","NORAD_CAT_ID":5851,"ELEMENT_SET_NO":999,"REV_AT_EPOCH":2520,"BSTAR":0,"MEAN_MOTION_DOT":-2.59e-6,"MEAN_MOTION_DDOT":0},{"OBJECT_NAME":"INTELSAT 4-F5","OBJECT_ID":"1972-041A","EPOCH":"2026-04-04T15:43:05.388672","MEAN_MOTION":1.00104438,"ECCENTRICITY":0.000271,"INCLINATION":5.9118,"RA_OF_ASC_NODE":287.5236,"ARG_OF_PERICENTER":321.9424,"MEAN_ANOMALY":37.7919,"EPHEMERIS_TYPE":0,"CLASSIFICATION_TYPE":"U","NORAD_CAT_ID":6052,"ELEMENT_SET_NO":999,"REV_AT_EPOCH":4592,"BSTAR":0,"MEAN_MOTION_DOT":1.12e-6,"MEAN_MOTION_DDOT":0},{"OBJECT_NAME":"OPS 6063","OBJECT_ID":"1973-013A","EPOCH":"2026-04-05T04:37:38.549856","MEAN_MOTION":1.0027452,"ECCENTRICITY":0.00129257,"INCLINATION":0.5295,"RA_OF_ASC_NODE":247.4648,"ARG_OF_PERICENTER":275.5843,"MEAN_ANOMALY":176.136,"EPHEMERIS_TYPE":0,"CLASSIFICATION_TYPE":"U","NORAD_CAT_ID":6380,"ELEMENT_SET_NO":999,"REV_AT_EPOCH":2569,"BSTAR":0,"MEAN_MOTION_DOT":-9.9e-7,"MEAN_MOTION_DDOT":0},{"OBJECT_NAME":"ANIK A2 (TELESAT 2)","OBJECT_ID":"1973-023A","EPOCH":"2026-04-04T22:00:35.476992","MEAN_MOTION":0.99804567,"ECCENTRICITY":0.00119784,"INCLINATION":7.1015,"RA_OF_ASC_NODE":296.4764,"ARG_OF_PERICENTER":71.5114,"MEAN_ANOMALY":295.6277,"EPHEMERIS_TYPE":0,"CLASSIFICATION_TYPE":"U","NORAD_CAT_ID":6437,"ELEMENT_SET_NO":999,"REV_AT_EPOCH":4642,"BSTAR":0,"MEAN_MOTION_DOT":-3.35e-6,"MEAN_MOTION_DDOT":0},{"OBJECT_NAME":"OPS 6157 (DSP 4)","OBJECT_ID":"1973-040A","EPOCH":"2026-04-05T06:29:36.670848","MEAN_MOTION":0.99823795,"ECCENTRICITY":0.00076116,"INCLINATION":1.0546,"RA_OF_ASC_NODE":229.5607,"ARG_OF_PERICENTER":69.7589,"MEAN_ANOMALY":116.6247,"EPHEMERIS_TYPE":0,"CLASSIFICATION_TYPE":"U","NORAD_CAT_ID":6691,"ELEMENT_SET_NO":999,"REV_AT_EPOCH":2521,"BSTAR":0,"MEAN_MOTION_DOT":-3.43e-6,"MEAN_MOTION_DDOT":0},{"OBJECT_NAME":"WESTAR 1","OBJECT_ID":"1974-022A","EPOCH":"2026-04-05T02:57:21.746304","MEAN_MOTION":0.99888299,"ECCENTRICITY":0.00063698,"INCLINATION":7.2736,"RA_OF_ASC_NODE":298.543,"ARG_OF_PERICENTER":41.2009,"MEAN_ANOMALY":342.1382,"EPHEMERIS_TYPE":0,"CLASSIFICATION_TYPE":"U","NORAD_CAT_ID":7250,"ELEMENT_SET_NO":999,"REV_AT_EPOCH":12160,"BSTAR":0,"MEAN_MOTION_DOT":-1.01e-6,"MEAN_MOTION_DDOT":0},{"OBJECT_NAME":"MOLNIYA 1-S","OBJECT_ID":"1974-060A","EPOCH":"2026-04-05T01:14:07.186848","MEAN_MOTION":1.00320503,"ECCENTRICITY":0.00076661,"INCLINATION":1.5603,"RA_OF_ASC_NODE":253.5651,"ARG_OF_PERICENTER":281.5841,"MEAN_ANOMALY":135.5561,"EPHEMERIS_TYPE":0,"CLASSIFICATION_TYPE":"U","NORAD_CAT_ID":7392,"ELEMENT_SET_NO":999,"REV_AT_EPOCH":13344,"BSTAR":0,"MEAN_MOTION_DOT":-3.03e-6,"MEAN_MOTION_DDOT":0},{"OBJECT_NAME":"WESTAR 2","OBJECT_ID":"1974-075A","EPOCH":"2026-04-05T00:30:11.954016","MEAN_MOTION":0.99854777,"ECCENTRICITY":0.00016605,"INCLINATION":7.4233,"RA_OF_ASC_NODE":300.2506,"ARG_OF_PERICENTER":219.1349,"MEAN_ANOMALY":346.5274,"EPHEMERIS_TYPE":0,"CLASSIFICATION_TYPE":"U","NORAD_CAT_ID":7466,"ELEMENT_SET_NO":999,"REV_AT_EPOCH":13692,"BSTAR":0,"MEAN_MOTION_DOT":-2.81e-6,"MEAN_MOTION_DDOT":0},{"OBJECT_NAME":"INTELSAT 4-F8","OBJECT_ID":"1974-093A","EPOCH":"2026-04-05T05:28:38.784288","MEAN_MOTION":0.99793176,"ECCENTRICITY":0.00014614,"INCLINATION":8.1244,"RA_OF_ASC_NODE":305.0576,"ARG_OF_PERICENTER":207.7431,"MEAN_ANOMALY":126.523,"EPHEMERIS_TYPE":0,"CLASSIFICATION_TYPE":"U","NORAD_CAT_ID":7544,"ELEMENT_SET_NO":999,"REV_AT_EPOCH":12447,"BSTAR":0,"MEAN_MOTION_DOT":-7.5e-7,"MEAN_MOTION_DDOT":0},{"OBJECT_NAME":"SKYNET 2B","OBJECT_ID":"1974-094A","EPOCH":"2026-04-05T04:30:33.346944","MEAN_MOTION":1.00391471,"ECCENTRICITY":9.971e-5,"INCLINATION":3.7555,"RA_OF_ASC_NODE":281.3671,"ARG_OF_PERICENTER":172.2612,"MEAN_ANOMALY":235.1197,"EPHEMERIS_TYPE":0,"CLASSIFICATION_TYPE":"U","NORAD_CAT_ID":7547,"ELEMENT_SET_NO":999,"REV_AT_EPOCH":12403,"BSTAR":0,"MEAN_MOTION_DOT":-4.6e-7,"MEAN_MOTION_DDOT":0},{"OBJECT_NAME":"SYMPHONIE 1","OBJECT_ID":"1974-101A","EPOCH":"2026-04-05T04:12:57.533760","MEAN_MOTION":0.99961627,"ECCENTRICITY":0.00037076,"INCLINATION":4.7629,"RA_OF_ASC_NODE":277.9496,"ARG_OF_PERICENTER":40.2967,"MEAN_ANOMALY":304.2581,"EPHEMERIS_TYPE":0,"CLASSIFICATION_TYPE":"U","NORAD_CAT_ID":7578,"ELEMENT_SET_NO":999,"REV_AT_EPOCH":11646,"BSTAR":0,"MEAN_MOTION_DOT":-2.0e-7,"MEAN_MOTION_DDOT":0},{"OBJECT_NAME":"ANIK A3 (TELESAT 3)","OBJECT_ID":"1975-038A","EPOCH":"2026-04-05T04:25:03.874368","MEAN_MOTION":1.00038892,"ECCENTRICITY":0.00022786,"INCLINATION":7.8557,"RA_OF_ASC_NODE":303.2834,"ARG_OF_PERICENTER":40.3453,"MEAN_ANOMALY":324.2143,"EPHEMERIS_TYPE":0,"CLASSIFICATION_TYPE":"U","NORAD_CAT_ID":7790,"ELEMENT_SET_NO":999,"REV_AT_EPOCH":12923,"BSTAR":0,"MEAN_MOTION_DOT":1.25e-6,"MEAN_MOTION_DDOT":0},{"OBJECT_NAME":"SYMPHONIE 2","OBJECT_ID":"1975-077A","EPOCH":"2026-04-05T05:03:52.650720","MEAN_MOTION":0.99981688,"ECCENTRICITY":0.00064097,"INCLINATION":4.2266,"RA_OF_ASC_NODE":275.5319,"ARG_OF_PERICENTER":52.2035,"MEAN_ANOMALY":125.8541,"EPHEMERIS_TYPE":0,"CLASSIFICATION_TYPE":"U","NORAD_CAT_ID":8132,"ELEMENT_SET_NO":999,"REV_AT_EPOCH":14172,"BSTAR":0,"MEAN_MOTION_DOT":2.8e-7,"MEAN_MOTION_DDOT":0},{"OBJECT_NAME":"INTELSAT 4A-F1","OBJECT_ID":"1975-091A","EPOCH":"2026-04-05T04:28:48.515232","MEAN_MOTION":0.99918303,"ECCENTRICITY":0.00039046,"INCLINATION":8.0248,"RA_OF_ASC_NODE":304.801,"ARG_OF_PERICENTER":275.2819,"MEAN_ANOMALY":101.8798,"EPHEMERIS_TYPE":0,"CLASSIFICATION_TYPE":"U","NORAD_CAT_ID":8330,"ELEMENT_SET_NO":999,"REV_AT_EPOCH":12074,"BSTAR":0,"MEAN_MOTION_DOT":7.5e-7,"MEAN_MOTION_DDOT":0},{"OBJECT_NAME":"COSMOS 775","OBJECT_ID":"1975-097A","EPOCH":"2026-04-05T04:25:26.338368","MEAN_MOTION":1.00209953,"ECCENTRICITY":0.00105842,"INCLINATION":2.5474,"RA_OF_ASC_NODE":262.5061,"ARG_OF_PERICENTER":177.6644,"MEAN_ANOMALY":229.2627,"EPHEMERIS_TYPE":0,"CLASSIFICATION_TYPE":"U","NORAD_CAT_ID":8357,"ELEMENT_SET_NO":999,"REV_AT_EPOCH":13103,"BSTAR":0,"MEAN_MOTION_DOT":1.23e-6,"MEAN_MOTION_DDOT":0},{"OBJECT_NAME":"GOES 1 (SMS-C)","OBJECT_ID":"1975-100A","EPOCH":"2026-04-05T03:35:53.589120","MEAN_MOTION":1.00244694,"ECCENTRICITY":0.00047373,"INCLINATION":4.7936,"RA_OF_ASC_NODE":278.3748,"ARG_OF_PERICENTER":2.52,"MEAN_ANOMALY":202.3513,"EPHEMERIS_TYPE":0,"CLASSIFICATION_TYPE":"U","NORAD_CAT_ID":8366,"ELEMENT_SET_NO":999,"REV_AT_EPOCH":18433,"BSTAR":0,"MEAN_MOTION_DOT":3.1e-7,"MEAN_MOTION_DDOT":0}]
