INTELSAT 4-F4           
1 05775U 72003A   26095.08605220 -.00000148  00000+0  00000+0 0  9993
2 05775   6.9173 294.9915 0002292  96.2949 106.6082  0.99824718136668
OPS 1570 (DSP 3)        
1 05851U 72010A   26095.09194556 -.00000259  00000+0  00000+0 0  9995
2 05851   0.2315 109.0723 0009455 180.8311 239.5969  0.99777421 25207
INTELSAT 4-F5           
1 06052U 72041A   26094.65492348  .00000112  00000+0  00000+0 0  9991
2 06052   5.9118 287.5236 0002710 321.9424  37.7919  1.00104438 45924
OPS 6063                
1 06380U 73013A   26095.19280729 -.00000099  00000+0  00000+0 0  9998
2 06380   0.5295 247.4648 0012925 275.5843 176.1360  1.00274520 25695
ANIK A2 (TELESAT 2)     
1 06437U 73023A   26094.91707728 -.00000335  00000+0  00000+0 0  9997
2 06437   7.1015 296.4764 0011978  71.5114 295.6277  0.99804567 46421
OPS 6157 (DSP 4)        
1 06691U 73040A   26095.27056332 -.00000343  00000+0  00000+0 0  9995
2 06691   1.0546 229.5607 0007611  69.7589 116.6247  0.99823795 25219
WESTAR 1                
1 07250U 74022A   26095.12316836 -.00000101  00000+0  00000+0 0  9992
2 07250   7.2736 298.5430 0006369  41.2009 342.1382  0.99888299121607
MOLNIYA 1-S             
1 07392U 74060A   26095.05147207 -.00000303  00000+0  00000+0 0  9991
2 07392   1.5603 253.5651 0007666 281.5841 135.5561  1.00320503133444
WESTAR 2                
1 07466U 74075A   26095.02097169 -.00000281  00000+0  00000+0 0  9992
2 07466   7.4233 300.2506 0001660 219.1349 346.5274  0.99854777136920
INTELSAT 4-F8           
1 07544U 74093A   26095.22822667 -.00000075  00000+0  00000+0 0  9991
2 07544   8.1244 305.0576 0001461 207.7431 126.5230  0.99793176124471
SKYNET 2B               
1 07547U 74094A   26095.18788596 -.00000046  00000+0  00000+0 0  9990
2 07547   3.7555 281.3671 0000997 172.2612 235.1197  1.00391471124038
SYMPHONIE 1             
1 07578U 74101A   26095.17566590 -.00000020  00000+0  00000+0 0  9992
2 07578   4.7629 277.9496 0003707  40.2967 304.2581  0.99961627116466
ANIK A3 (TELESAT 3)     
1 07790U 75038A   26095.18407262  .00000125  00000+0  00000+0 0  9994
2 07790   7.8557 303.2834 0002278  40.3453 324.2143  1.00038892129235
SYMPHONIE 2             
1 08132U 75077A   26095.21102605  .00000028  00000+0  00000+0 0  9997
2 08132   4.2266 275.5319 0006409  52.2035 125.8541  0.99981688141723
INTELSAT 4A-F1          
1 08330U 75091A   26095.18667263  .00000075  00000+0  00000+0 0  9997
2 08330   8.0248 304.8010 0003904 275.2819 101.8798  0.99918303120744
COSMOS 775              
1 08357U 75097A   26095.18433262  .00000123  00000+0  00000+0 0  9996
2 08357   2.5474 262.5061 0010584 177.6644 229.2627  1.00209953131039
GOES 1 (SMS-C)          
1 08366U 75100A   26095.14992580  .00000031  00000+0  00000+0 0  9998
2 08366   4.7936 278.3748 0004737   2.5200 202.3513  1.00244694184338
